ORBCOMM FM20            
1 25416U 98046D   25200.57982803  .00000539  00000+0  22655-3 0  9995
2 25416  44.9952  27.8613 0001354 109.9447 250.1547 14.37254865408929
ORBCOMM FM16            
1 25417U 98046E   25200.60669828  .00000654  00000+0  25572-3 0  9998
2 25417  44.9948  18.8777 0005159 109.2257 250.9150 14.38973014408928
ORBCOMM FM15            
1 25418U 98046F   25200.59088836  .00000702  00000+0  27312-3 0  9999
2 25418  44.9980  24.1946 0004753 108.1108 252.0258 14.38615398408914
ORBCOMM FM14            
1 25419U 98046G   25200.53108126  .00000659  00000+0  25763-3 0  9998
2 25419  44.9968  22.6223 0003574 105.5992 254.5251 14.38978360408870
ORBCOMM FM13            
1 25420U 98046H   25200.60390904  .00000645  00000+0  25922-3 0  9997
2 25420  44.9984  30.5695 0005497  85.6820 274.4656 14.37723854407903
ORBCOMM FM21            
1 25475U 98053A   25200.47860442  .00000700  00000+0  27916-3 0  9996
2 25475  45.0082 116.5670 0002728   0.4014 359.6835 14.37395992401891
ORBCOMM FM22            
1 25476U 98053B   25200.49213077  .00000742  00000+0  28719-3 0  9993
2 25476  45.0075 111.0944 0004428  14.2576 345.8397 14.38443289401921
ORBCOMM FM23            
1 25477U 98053C   25200.47521251  .00000641  00000+0  25870-3 0  9991
2 25477  45.0080 118.6610 0003730   4.2757 355.8122 14.37580083402040
