<?xml version="1.0" encoding="UTF-8"?>
<ndm xmlns:xsi="http://www.w3.org/2001/XMLSchema-instance" xsi:noNamespaceSchemaLocation="https://sanaregistry.org/r/ndmxml_unqualified/ndmxml-2.0.0-master-2.0.xsd">
<omm id="CCSDS_OMM_VERS" version="2.0">
<header><CREATION_DATE/><ORIGINATOR/></header><body><segment><metadata><OBJECT_NAME>ORBCOMM FM20</OBJECT_NAME><OBJECT_ID>1998-046D</OBJECT_ID><CENTER_NAME>EARTH</CENTER_NAME><REF_FRAME>TEME</REF_FRAME><TIME_SYSTEM>UTC</TIME_SYSTEM><MEAN_ELEMENT_THEORY>SGP4</MEAN_ELEMENT_THEORY></metadata><data><meanElements><EPOCH>2025-07-19T13:54:57.141792</EPOCH><MEAN_MOTION>14.37254865</MEAN_MOTION><ECCENTRICITY>.0001354</ECCENTRICITY><INCLINATION>44.9952</INCLINATION><RA_OF_ASC_NODE>27.8613</RA_OF_ASC_NODE><ARG_OF_PERICENTER>109.9447</ARG_OF_PERICENTER><MEAN_ANOMALY>250.1547</MEAN_ANOMALY></meanElements><tleParameters><EPHEMERIS_TYPE>0</EPHEMERIS_TYPE><CLASSIFICATION_TYPE>U</CLASSIFICATION_TYPE><NORAD_CAT_ID>25416</NORAD_CAT_ID><ELEMENT_SET_NO>999</ELEMENT_SET_NO><REV_AT_EPOCH>40892</REV_AT_EPOCH><BSTAR>.22655E-3</BSTAR><MEAN_MOTION_DOT>.539E-5</MEAN_MOTION_DOT><MEAN_MOTION_DDOT>0</MEAN_MOTION_DDOT></tleParameters></data></segment></body></omm>
<omm id="CCSDS_OMM_VERS" version="2.0">
<header><CREATION_DATE/><ORIGINATOR/></header><body><segment><metadata><OBJECT_NAME>ORBCOMM FM16</OBJECT_NAME><OBJECT_ID>1998-046E</OBJECT_ID><CENTER_NAME>EARTH</CENTER_NAME><REF_FRAME>TEME</REF_FRAME><TIME_SYSTEM>UTC</TIME_SYSTEM><MEAN_ELEMENT_THEORY>SGP4</MEAN_ELEMENT_THEORY></metadata><data><meanElements><EPOCH>2025-07-19T14:33:38.731392</EPOCH><MEAN_MOTION>14.38973014</MEAN_MOTION><ECCENTRICITY>.0005159</ECCENTRICITY><INCLINATION>44.9948</INCLINATION><RA_OF_ASC_NODE>18.8777</RA_OF_ASC_NODE><ARG_OF_PERICENTER>109.2257</ARG_OF_PERICENTER><MEAN_ANOMALY>250.9150</MEAN_ANOMALY></meanElements><tleParameters><EPHEMERIS_TYPE>0</EPHEMERIS_TYPE><CLASSIFICATION_TYPE>U</CLASSIFICATION_TYPE><NORAD_CAT_ID>25417</NORAD_CAT_ID><ELEMENT_SET_NO>999</ELEMENT_SET_NO><REV_AT_EPOCH>40892</REV_AT_EPOCH><BSTAR>.25572E-3</BSTAR><MEAN_MOTION_DOT>.654E-5</MEAN_MOTION_DOT><MEAN_MOTION_DDOT>0</MEAN_MOTION_DDOT></tleParameters></data></segment></body></omm>
<omm id="CCSDS_OMM_VERS" version="2.0">
<header><CREATION_DATE/><ORIGINATOR/></header><body><segment><metadata><OBJECT_NAME>ORBCOMM FM15</OBJECT_NAME><OBJECT_ID>1998-046F</OBJECT_ID><CENTER_NAME>EARTH</CENTER_NAME><REF_FRAME>TEME</REF_FRAME><TIME_SYSTEM>UTC</TIME_SYSTEM><MEAN_ELEMENT_THEORY>SGP4</MEAN_ELEMENT_THEORY></metadata><data><meanElements><EPOCH>2025-07-19T14:10:52.754304</EPOCH><MEAN_MOTION>14.38615398</MEAN_MOTION><ECCENTRICITY>.0004753</ECCENTRICITY><INCLINATION>44.9980</INCLINATION><RA_OF_ASC_NODE>24.1946</RA_OF_ASC_NODE><ARG_OF_PERICENTER>108.1108</ARG_OF_PERICENTER><MEAN_ANOMALY>252.0258</MEAN_ANOMALY></meanElements><tleParameters><EPHEMERIS_TYPE>0</EPHEMERIS_TYPE><CLASSIFICATION_TYPE>U</CLASSIFICATION_TYPE><NORAD_CAT_ID>25418</NORAD_CAT_ID><ELEMENT_SET_NO>999</ELEMENT_SET_NO><REV_AT_EPOCH>40891</REV_AT_EPOCH><BSTAR>.27312E-3</BSTAR><MEAN_MOTION_DOT>.702E-5</MEAN_MOTION_DOT><MEAN_MOTION_DDOT>0</MEAN_MOTION_DDOT></tleParameters></data></segment></body></omm>
<omm id="CCSDS_OMM_VERS" version="2.0">
<header><CREATION_DATE/><ORIGINATOR/></header><body><segment><metadata><OBJECT_NAME>ORBCOMM FM14</OBJECT_NAME><OBJECT_ID>1998-046G</OBJECT_ID><CENTER_NAME>EARTH</CENTER_NAME><REF_FRAME>TEME</REF_FRAME><TIME_SYSTEM>UTC</TIME_SYSTEM><MEAN_ELEMENT_THEORY>SGP4</MEAN_ELEMENT_THEORY></metadata><data><meanElements><EPOCH>2025-07-19T12:44:45.420864</EPOCH><MEAN_MOTION>14.38978360</MEAN_MOTION><ECCENTRICITY>.0003574</ECCENTRICITY><INCLINATION>44.9968</INCLINATION><RA_OF_ASC_NODE>22.6223</RA_OF_ASC_NODE><ARG_OF_PERICENTER>105.5992</ARG_OF_PERICENTER><MEAN_ANOMALY>254.5251</MEAN_ANOMALY></meanElements><tleParameters><EPHEMERIS_TYPE>0</EPHEMERIS_TYPE><CLASSIFICATION_TYPE>U</CLASSIFICATION_TYPE><NORAD_CAT_ID>25419</NORAD_CAT_ID><ELEMENT_SET_NO>999</ELEMENT_SET_NO><REV_AT_EPOCH>40887</REV_AT_EPOCH><BSTAR>.25763E-3</BSTAR><MEAN_MOTION_DOT>.659E-5</MEAN_MOTION_DOT><MEAN_MOTION_DDOT>0</MEAN_MOTION_DDOT></tleParameters></data></segment></body></omm>
<omm id="CCSDS_OMM_VERS" version="2.0">
<header><CREATION_DATE/><ORIGINATOR/></header><body><segment><metadata><OBJECT_NAME>ORBCOMM FM13</OBJECT_NAME><OBJECT_ID>1998-046H</OBJECT_ID><CENTER_NAME>EARTH</CENTER_NAME><REF_FRAME>TEME</REF_FRAME><TIME_SYSTEM>UTC</TIME_SYSTEM><MEAN_ELEMENT_THEORY>SGP4</MEAN_ELEMENT_THEORY></metadata><data><meanElements><EPOCH>2025-07-19T14:29:37.741056</EPOCH><MEAN_MOTION>14.37723854</MEAN_MOTION><ECCENTRICITY>.0005497</ECCENTRICITY><INCLINATION>44.9984</INCLINATION><RA_OF_ASC_NODE>30.5695</RA_OF_ASC_NODE><ARG_OF_PERICENTER>85.6820</ARG_OF_PERICENTER><MEAN_ANOMALY>274.4656</MEAN_ANOMALY></meanElements><tleParameters><EPHEMERIS_TYPE>0</EPHEMERIS_TYPE><CLASSIFICATION_TYPE>U</CLASSIFICATION_TYPE><NORAD_CAT_ID>25420</NORAD_CAT_ID><ELEMENT_SET_NO>999</ELEMENT_SET_NO><REV_AT_EPOCH>40790</REV_AT_EPOCH><BSTAR>.25922E-3</BSTAR><MEAN_MOTION_DOT>.645E-5</MEAN_MOTION_DOT><MEAN_MOTION_DDOT>0</MEAN_MOTION_DDOT></tleParameters></data></segment></body></omm>
<omm id="CCSDS_OMM_VERS" version="2.0">
<header><CREATION_DATE/><ORIGINATOR/></header><body><segment><metadata><OBJECT_NAME>ORBCOMM FM21</OBJECT_NAME><OBJECT_ID>1998-053A</OBJECT_ID><CENTER_NAME>EARTH</CENTER_NAME><REF_FRAME>TEME</REF_FRAME><TIME_SYSTEM>UTC</TIME_SYSTEM><MEAN_ELEMENT_THEORY>SGP4</MEAN_ELEMENT_THEORY></metadata><data><meanElements><EPOCH>2025-07-19T11:29:11.421888</EPOCH><MEAN_MOTION>14.37395992</MEAN_MOTION><ECCENTRICITY>.0002728</ECCENTRICITY><INCLINATION>45.0082</INCLINATION><RA_OF_ASC_NODE>116.5670</RA_OF_ASC_NODE><ARG_OF_PERICENTER>0.4014</ARG_OF_PERICENTER><MEAN_ANOMALY>359.6835</MEAN_ANOMALY></meanElements><tleParameters><EPHEMERIS_TYPE>0</EPHEMERIS_TYPE><CLASSIFICATION_TYPE>U</CLASSIFICATION_TYPE><NORAD_CAT_ID>25475</NORAD_CAT_ID><ELEMENT_SET_NO>999</ELEMENT_SET_NO><REV_AT_EPOCH>40189</REV_AT_EPOCH><BSTAR>.27916E-3</BSTAR><MEAN_MOTION_DOT>.7E-5</MEAN_MOTION_DOT><MEAN_MOTION_DDOT>0</MEAN_MOTION_DDOT></tleParameters></data></segment></body></omm>
<omm id="CCSDS_OMM_VERS" version="2.0">
<header><CREATION_DATE/><ORIGINATOR/></header><body><segment><metadata><OBJECT_NAME>ORBCOMM FM22</OBJECT_NAME><OBJECT_ID>1998-053B</OBJECT_ID><CENTER_NAME>EARTH</CENTER_NAME><REF_FRAME>TEME</REF_FRAME><TIME_SYSTEM>UTC</TIME_SYSTEM><MEAN_ELEMENT_THEORY>SGP4</MEAN_ELEMENT_THEORY></metadata><data><meanElements><EPOCH>2025-07-19T11:48:40.098528</EPOCH><MEAN_MOTION>14.38443289</MEAN_MOTION><ECCENTRICITY>.0004428</ECCENTRICITY><INCLINATION>45.0075</INCLINATION><RA_OF_ASC_NODE>111.0944</RA_OF_ASC_NODE><ARG_OF_PERICENTER>14.2576</ARG_OF_PERICENTER><MEAN_ANOMALY>345.8397</MEAN_ANOMALY></meanElements><tleParameters><EPHEMERIS_TYPE>0</EPHEMERIS_TYPE><CLASSIFICATION_TYPE>U</CLASSIFICATION_TYPE><NORAD_CAT_ID>25476</NORAD_CAT_ID><ELEMENT_SET_NO>999</ELEMENT_SET_NO><REV_AT_EPOCH>40192</REV_AT_EPOCH><BSTAR>.28719E-3</BSTAR><MEAN_MOTION_DOT>.742E-5</MEAN_MOTION_DOT><MEAN_MOTION_DDOT>0</MEAN_MOTION_DDOT></tleParameters></data></segment></body></omm>
<omm id="CCSDS_OMM_VERS" version="2.0">
<header><CREATION_DATE/><ORIGINATOR/></header><body><segment><metadata><OBJECT_NAME>ORBCOMM FM23</OBJECT_NAME><OBJECT_ID>1998-053C</OBJECT_ID><CENTER_NAME>EARTH</CENTER_NAME><REF_FRAME>TEME</REF_FRAME><TIME_SYSTEM>UTC</TIME_SYSTEM><MEAN_ELEMENT_THEORY>SGP4</MEAN_ELEMENT_THEORY></metadata><data><meanElements><EPOCH>2025-07-19T11:24:18.360864</EPOCH><MEAN_MOTION>14.37580083</MEAN_MOTION><ECCENTRICITY>.000373</ECCENTRICITY><INCLINATION>45.0080</INCLINATION><RA_OF_ASC_NODE>118.6610</RA_OF_ASC_NODE><ARG_OF_PERICENTER>4.2757</ARG_OF_PERICENTER><MEAN_ANOMALY>355.8122</MEAN_ANOMALY></meanElements><tleParameters><EPHEMERIS_TYPE>0</EPHEMERIS_TYPE><CLASSIFICATION_TYPE>U</CLASSIFICATION_TYPE><NORAD_CAT_ID>25477</NORAD_CAT_ID><ELEMENT_SET_NO>999</ELEMENT_SET_NO><REV_AT_EPOCH>40204</REV_AT_EPOCH><BSTAR>.2587E-3</BSTAR><MEAN_MOTION_DOT>.641E-5</MEAN_MOTION_DOT><MEAN_MOTION_DDOT>0</MEAN_MOTION_DDOT></tleParameters></data></segment></body></omm>

</ndm>
